LUOJIA-1 01             
1 43485U 18048B   18235.83427407  .00000069  00000-0  17361-4 0  9996
2 43485  98.0484 310.6052 0011745  15.0280 345.1261 14.76449519 12195